0 FENGYUN 1C DEB
1 31476U 99025BVQ 13281.40984763  .00001655  00000-0  10265-2 0  1155
2 31476 099.0470 261.2494 0067672 086.5045 071.4477 14.05410837330027
0 FENGYUN 1C DEB
1 31476U 99025BVQ 13281.89068727  .00001850  00000-0  11439-2 0  1163
2 31476 099.0470 261.7292 0067696 085.1894 344.2152 14.05416360330096
0 FENGYUN 1C DEB
1 31476U 99025BVQ 13285.39783938  .00001433  00000-0  89168-3 0  1173
2 31476 099.0471 265.2290 0067899 075.6147 088.5166 14.05430536330582
0 FENGYUN 1C DEB
1 31476U 99025BVQ 13288.45744433  .00002216  00000-0  13639-2 0  1180
2 31476 099.0472 268.2819 0067899 067.2561 088.6276 14.05442754331017
0 FENGYUN 1C DEB
1 31476U 99025BVQ 13290.64692293  .00001930  00000-0  11915-2 0  1198
2 31476 099.0479 270.4670 0067792 061.2928 006.3971 14.05452375331320
0 FENGYUN 1C DEB
1 31476U 99025BVQ 13292.91760809  .00002336  00000-0  14364-2 0  1203
2 31476 099.0474 272.7327 0067771 055.0019 335.2204 14.05459531331647
0 FENGYUN 1C DEB
1 31476U 99025BVQ 13294.91766476  .00002932  00000-0  17954-2 0  1212
2 31476 099.0483 274.7285 0067682 049.5251 014.7614 14.05467294331929
